TIANMU-1 07             
1 57399U 23101A   26065.57454230  .00008352  00000+0  29795-3 0  9991
2 57399  97.2728 118.5929 0004609 142.4105 217.7458 15.29118809145964
STARLINK-34621          
1 64774U 25147V   26068.72759243  .00022303  00000+0  76279-3 0  9991
2 64774  53.1611 242.8482 0001178 102.1066 258.0067 15.30204330 38684
