[{"OBJECT_NAME":"TIANMU-1 07","OBJECT_ID":"2023-101A","EPOCH":"2026-03-06T13:47:20.454720","MEAN_MOTION":15.29118809,"ECCENTRICITY":0.00046097,"INCLINATION":97.2728,"RA_OF_ASC_NODE":118.5929,"ARG_OF_PERICENTER":142.4105,"MEAN_ANOMALY":217.7458,"EPHEMERIS_TYPE":0,"CLASSIFICATION_TYPE":"U","NORAD_CAT_ID":57399,"ELEMENT_SET_NO":999,"REV_AT_EPOCH":14596,"BSTAR":0.00029794732,"MEAN_MOTION_DOT":8.352e-5,"MEAN_MOTION_DDOT":0},{"OBJECT_NAME":"STARLINK-34621","OBJECT_ID":"2025-147V","EPOCH":"2026-03-09T17:27:43.986816","MEAN_MOTION":15.3020433,"ECCENTRICITY":0.00011779,"INCLINATION":53.1611,"RA_OF_ASC_NODE":242.8482,"ARG_OF_PERICENTER":102.1066,"MEAN_ANOMALY":258.0067,"EPHEMERIS_TYPE":0,"CLASSIFICATION_TYPE":"U","NORAD_CAT_ID":64774,"ELEMENT_SET_NO":999,"REV_AT_EPOCH":3868,"BSTAR":0.00076278524,"MEAN_MOTION_DOT":0.00022303,"MEAN_MOTION_DDOT":0}]
